ONEWEB-0196             
1 48218U 21031J   26017.27547467  .00000177  00000+0  44301-3 0  9997
2 48218  87.9022 319.7832 0001621  82.7386 277.3928 13.14501761228403
ONEWEB-0183             
1 48219U 21031K   26017.25010872 -.00000151  00000+0 -44154-3 0  9991
2 48219  87.9016 319.7901 0001935  81.2398 278.8951 13.14503897228492
ONEWEB-0185             
1 48220U 21031L   26017.27627043  .00000218  00000+0  55375-3 0  9998
2 48220  87.9027 319.7667 0001931  90.0450 270.0901 13.14501566228421
ONEWEB-0187             
1 48221U 21031M   26017.25632082 -.00000100  00000+0 -30419-3 0  9990
2 48221  87.9017 319.8078 0001697  87.8404 272.2920 13.14503538228437
ONEWEB-0192             
1 48222U 21031N   26017.30244179  .00000058  00000+0  12256-3 0  9992
2 48222  87.9019 319.7879 0001606  77.4339 282.6971 13.14503922228359
ONEWEB-0219             
1 48223U 21031P   26017.28182937  .00000289  00000+0  74475-3 0  9990
2 48223  87.9027 319.7728 0001758  86.2399 273.8931 13.14503364228554
ONEWEB-0202             
1 48224U 21031Q   26017.26279018  .00000053  00000+0  10820-3 0  9999
2 48224  87.9022 319.7868 0001032  88.4030 271.7218 13.14503840228538
ONEWEB-0204             
1 48225U 21031R   26017.29688184  .00000281  00000+0  72465-3 0  9997
2 48225  87.9024 319.7729 0002057  79.1486 280.9876 13.14500987228437
